NORAD_CAT_ID,OBJECT_NAME,OBJECT_TYPE,EPOCH,MEAN_MOTION,ECCENTRICITY,INCLINATION,RA_OF_ASC_NODE,ARG_OF_PERICENTER,MEAN_ANOMALY,BSTAR,MEAN_MOTION_DOT,MEAN_MOTION_DDOT,TLE_LINE0,TLE_LINE1,TLE_LINE2,SEMIMAJOR_AXIS,PERIOD,APOGEE,PERIGEE,DECAYED
55399.0,STARLINK-5276,PAYLOAD,2023-07-11 17:12:37,15.51233791,0.0003452,69.9987,357.9236,266.1657,93.9134,1.9533e-05,9.83e-06,0.0,0 STARLINK-5276,1 55399U 23014J   23192.71710547  .00000983  00000-0  19533-4 0  9995,2 55399  69.9987 357.9236 0003452 266.1657  93.9134 15.51233791 25455,6791.26,92.829,415.469,410.78,0.0
55399.0,STARLINK-5276,PAYLOAD,2023-07-12 10:14:51,15.5069308,0.0002443,69.9983,355.9856,263.5559,96.5348,-0.0011182,-0.00064092,0.0,0 STARLINK-5276,1 55399U 23014J   23193.42698695 -.00064092  00000-0 -11182-2 0  9996,2 55399  69.9983 355.9856 0002443 263.5559  96.5348 15.50693080 25566,6792.838,92.862,416.363,413.044,0.0
55399.0,STARLINK-5276,PAYLOAD,2023-07-13 18:00:00,15.47362025,0.0003312,70.0005,352.3806,274.7901,260.9531,-0.01818,-0.00851214,0.0,0 STARLINK-5276,1 55399U 23014J   23194.75001157 -.00851214  00000-0 -18180-1 0  9998,2 55399  70.0005 352.3806 0003312 274.7901 260.9531 15.47362025 25762,6802.584,93.062,426.702,422.196,0.0
55399.0,STARLINK-5276,PAYLOAD,2023-07-14 04:00:01,15.46556337,0.0003378,70.0003,351.2484,271.3262,64.267,-0.019222,-0.00873083,0.0,0 STARLINK-5276,1 55399U 23014J   23195.16668981 -.00873083  00000-0 -19222-1 0  9994,2 55399  70.0003 351.2484 0003378 271.3262  64.2670 15.46556337 25832,6804.946,93.11,429.11,424.512,0.0
55399.0,STARLINK-5276,PAYLOAD,2023-07-14 22:00:00,15.45121828,0.000318,70.0003,349.2144,276.1123,271.9377,-0.021243,-0.00926916,0.0,0 STARLINK-5276,1 55399U 23014J   23195.91667824 -.00926916  00000-0 -21243-1 0  9992,2 55399  70.0003 349.2144 0003180 276.1123 271.9377 15.45121828 25958,6809.157,93.197,433.187,428.857,0.0
55399.0,STARLINK-5276,PAYLOAD,2023-07-16 06:00:00,15.4246991,0.0003358,70.0006,345.6099,271.7362,124.3891,-0.021151,-0.00849597,0.0,0 STARLINK-5276,1 55399U 23014J   23197.25001157 -.00849597  00000-0 -21151-1 0  9999,2 55399  70.0006 345.6099 0003358 271.7362 124.3891 15.42469910 26152,6816.959,93.357,441.114,436.535,0.0
55399.0,STARLINK-5276,PAYLOAD,2023-07-16 14:00:01,15.41852482,0.0003315,70.0007,344.7111,273.5871,172.5956,-0.023827,-0.00930387,0.0,0 STARLINK-5276,1 55399U 23014J   23197.58334491 -.00930387  00000-0 -23827-1 0  9995,2 55399  70.0007 344.7111 0003315 273.5871 172.5956 15.41852482 26208,6818.779,93.394,442.905,438.384,0.0
55399.0,STARLINK-5276,PAYLOAD,2023-07-17 22:00:00,15.39259502,0.0003304,70.0007,341.1238,274.8687,3.72,-0.026337,-0.0094246,0.0,0 STARLINK-5276,1 55399U 23014J   23198.91667824 -.00942460  00000-0 -26337-1 0  9996,2 55399  70.0007 341.1238 0003304 274.8687   3.7200 15.39259502 26417,6826.435,93.551,450.555,446.044,0.0
55399.0,STARLINK-5276,PAYLOAD,2023-07-18 22:00:00,15.37305739,0.0003345,70.001,338.4428,276.1344,138.5526,-0.028259,-0.00948126,0.0,0 STARLINK-5276,1 55399U 23014J   23199.91667824 -.00948126  00000-0 -28259-1 0  9997,2 55399  70.0010 338.4428 0003345 276.1344 138.5526 15.37305739 26567,6832.217,93.67,456.368,451.797,0.0
55399.0,STARLINK-5276,PAYLOAD,2023-07-19 14:00:01,15.35975453,0.0003235,70.0013,336.66,272.3243,229.1981,-0.028458,-0.00917238,0.0,0 STARLINK-5276,1 55399U 23014J   23200.58334491 -.00917238  00000-0 -28458-1 0  9995,2 55399  70.0013 336.6600 0003235 272.3243 229.1981 15.35975453 26663,6836.162,93.751,460.238,455.815,0.0
55399.0,STARLINK-5276,PAYLOAD,2023-07-21 14:00:01,15.32059781,0.0003523,70.0012,331.3333,272.7173,110.4946,-0.032052,-0.00912555,0.0,0 STARLINK-5276,1 55399U 23014J   23202.58334491 -.00912555  00000-0 -32052-1 0  9999,2 55399  70.0012 331.3333 0003523 272.7173 110.4946 15.32059781 26974,6847.805,93.991,472.082,467.257,0.0
55399.0,STARLINK-5276,PAYLOAD,2023-07-24 14:00:01,15.2618693,0.0003542,70.0007,323.4011,271.6749,61.2673,-0.038238,-0.00919843,0.0,0 STARLINK-5276,1 55399U 23014J   23205.58334491 -.00919843  00000-0 -38238-1 0  9991,2 55399  70.0007 323.4011 0003542 271.6749  61.2673 15.26186930  2267,6865.361,94.353,489.657,484.794,0.0
55399.0,STARLINK-5276,PAYLOAD,2023-07-25 14:00:01,15.24225416,0.0003456,70.0006,320.7727,273.252,148.9176,-0.0402,-0.00912156,0.0,0 STARLINK-5276,1 55399U 23014J   23206.58335648 -.00912156  00000-0 -40200-1 0  9999,2 55399  70.0006 320.7727 0003456 273.2520 148.9176 15.24225416  2418,6871.249,94.474,495.489,490.74,0.0
55399.0,STARLINK-5276,PAYLOAD,2023-07-26 14:00:01,15.22261091,0.000337,70.0002,318.1519,274.6538,229.5752,-0.041914,-0.00898088,0.0,0 STARLINK-5276,1 55399U 23014J   23207.58334491 -.00898088  00000-0 -41914-1 0  9995,2 55399  70.0002 318.1519 0003370 274.6538 229.5752 15.22261091  2573,6877.159,94.596,501.342,496.707,0.0
55399.0,STARLINK-5276,PAYLOAD,2023-07-27 00:00:00,15.21464514,0.0003349,70.0,317.0623,272.1094,354.2514,-0.044508,-0.00929108,0.0,0 STARLINK-5276,1 55399U 23014J   23208.00001157 -.00929108  00000-0 -44508-1 0  9993,2 55399  70.0000 317.0623 0003349 272.1094 354.2514 15.21464514  2634,6879.559,94.646,503.728,499.12,0.0
55399.0,STARLINK-5276,PAYLOAD,2023-07-27 06:00:00,15.20984393,0.0003247,70.0001,316.4094,268.9176,286.1308,-0.04483,-0.00923147,0.0,0 STARLINK-5276,1 55399U 23014J   23208.25001157 -.00923147  00000-0 -44830-1 0  9995,2 55399  70.0001 316.4094 0003247 268.9176 286.1308 15.20984393 27846,6881.007,94.676,505.106,500.638,0.0
55399.0,STARLINK-5276,PAYLOAD,2023-07-27 14:00:01,15.20297624,0.0003322,70.0002,315.5393,273.1489,306.163,-0.04375,-0.0088573,0.0,0 STARLINK-5276,1 55399U 23014J   23208.58334491 -.00885730  00000-0 -43750-1 0  9996,2 55399  70.0002 315.5393 0003322 273.1489 306.1630 15.20297624  2723,6883.079,94.718,507.231,502.658,0.0
55399.0,STARLINK-5276,PAYLOAD,2023-07-27 22:00:00,15.19694799,0.0003224,69.9999,314.6702,270.9661,331.7897,-0.048958,-0.00967243,0.0,0 STARLINK-5276,1 55399U 23014J   23208.91667824 -.00967243  00000-0 -48958-1 0  9997,2 55399  69.9999 314.6702 0003224 270.9661 331.7897 15.19694799  2773,6884.899,94.756,508.984,504.545,0.0
55399.0,STARLINK-5276,PAYLOAD,2023-07-28 06:00:00,15.19029419,0.0003297,70.0002,313.8021,265.3061,0.1285,-0.047562,-0.00924931,0.0,0 STARLINK-5276,1 55399U 23014J   23209.25001157 -.00924931  00000-0 -47562-1 0  9993,2 55399  70.0002 313.8021 0003297 265.3061   0.1285 15.19029419 27998,6886.91,94.797,511.045,506.504,0.0
55399.0,STARLINK-5276,PAYLOAD,2023-07-28 14:00:01,15.18337181,0.0003381,70.0002,312.9347,272.3154,15.0376,-0.045891,-0.00878158,0.0,0 STARLINK-5276,1 55399U 23014J   23209.58334491 -.00878158  00000-0 -45891-1 0  9991,2 55399  70.0002 312.9347 0003381 272.3154  15.0376 15.18337181  2877,6889.003,94.841,513.197,508.539,0.0
55399.0,STARLINK-5276,PAYLOAD,2023-07-29 06:00:00,15.17074299,0.0003356,70.0003,311.2028,266.8795,61.9016,-0.050485,-0.00927675,0.0,0 STARLINK-5276,1 55399U 23014J   23210.25001157 -.00927675  00000-0 -50485-1 0  9991,2 55399  70.0003 311.2028 0003356 266.8795  61.9016 15.17074299 28143,6892.825,94.92,517.004,512.377,0.0
55399.0,STARLINK-5276,PAYLOAD,2023-07-30 06:00:02,15.15120308,0.0003352,70.0005,308.6113,267.3377,117.8123,-0.053742,-0.00933457,0.0,0 STARLINK-5276,1 55399U 23014J   23211.25002315 -.00933457  00000-0 -53742-1 0  9993,2 55399  70.0005 308.6113 0003352 267.3377 117.8123 15.15120308 28295,6898.75,95.042,522.928,518.303,0.0
55399.0,STARLINK-5276,PAYLOAD,2023-07-31 14:00:01,15.12469199,0.0003336,70.0005,305.1681,274.775,174.4534,-0.054136,-0.00876758,0.0,0 STARLINK-5276,1 55399U 23014J   23212.58334491 -.00876758  00000-0 -54136-1 0  9991,2 55399  70.0005 305.1681 0003336 274.7750 174.4534 15.12469199 28494,6906.81,95.209,530.979,526.37,0.0
55399.0,STARLINK-5276,PAYLOAD,2023-08-01 06:00:00,15.1121271,0.0003225,70.0004,303.4517,269.1449,207.4314,-0.06074,-0.00944356,0.0,0 STARLINK-5276,1 55399U 23014J   23213.25001157 -.00944356  00000-0 -60740-1 0  9994,2 55399  70.0004 303.4517 0003225 269.1449 207.4314 15.11212710 28602,6910.637,95.288,534.731,530.274,0.0
55399.0,STARLINK-5276,PAYLOAD,2023-08-02 14:00:01,15.08555291,0.0003238,69.9999,300.0293,275.2334,246.7112,-0.06024,-0.00875457,0.0,0 STARLINK-5276,1 55399U 23014J   23214.58334491 -.00875457  00000-0 -60240-1 0  9991,2 55399  69.9999 300.0293 0003238 275.2334 246.7112 15.08555291 28805,6918.751,95.456,542.856,538.375,0.0
55399.0,STARLINK-5276,PAYLOAD,2023-08-03 06:00:00,15.07300698,0.0003167,69.9997,298.3231,267.6486,272.2567,-0.067928,-0.00947982,0.0,0 STARLINK-5276,1 55399U 23014J   23215.25001157 -.00947982  00000-0 -67928-1 0  9999,2 55399  69.9997 298.3231 0003167 267.6486 272.2567 15.07300698 28905,6922.589,95.535,546.647,542.262,0.0
55399.0,STARLINK-5276,PAYLOAD,2023-08-04 06:00:00,15.05344179,0.0003198,69.9992,295.7702,266.7326,294.2767,-0.071718,-0.00949089,0.0,0 STARLINK-5276,1 55399U 23014J   23216.25001157 -.00949089  00000-0 -71718-1 0  9992,2 55399  69.9992 295.7702 0003198 266.7326 294.2767 15.05344179 29054,6928.586,95.659,552.667,548.236,0.0
55399.0,STARLINK-5276,PAYLOAD,2023-08-05 06:00:00,15.03388155,0.0003231,69.9988,293.2248,266.0636,309.009,-0.075791,-0.00962547,0.0,0 STARLINK-5276,1 55399U 23014J   23217.25001157 -.00962547  00000-0 -75791-1 0  9992,2 55399  69.9988 293.2248 0003231 266.0636 309.0090 15.03388155 29203,6934.595,95.784,558.7,554.219,0.0
55399.0,STARLINK-5276,PAYLOAD,2023-08-06 04:00:00,15.01586052,0.0003237,69.9985,290.8985,268.0274,223.7514,-0.077921,-0.00944601,0.0,0 STARLINK-5276,1 55399U 23014J   23218.16667824 -.00944601  00000-0 -77921-1 0  9990,2 55399  69.9985 290.8985 0003237 268.0274 223.7514 15.01586052 29349,6940.142,95.899,564.254,559.76,0.0
55399.0,STARLINK-5276,PAYLOAD,2023-08-07 06:00:00,14.99521345,0.000315,69.9987,288.1577,266.0875,315.982,-0.080883,-0.00929699,0.0,0 STARLINK-5276,1 55399U 23014J   23219.25001157 -.00929699  00000-0 -80883-1 0  9993,2 55399  69.9987 288.1577 0003150 266.0875 315.9820 14.99521345 29509,6946.511,96.031,570.564,566.188,0.0
